ONEWEB-0461             
1 51649U 22012AD  24256.42881308  .00000032  00000+0  49863-4 0  9993
2 51649  87.9142 133.8889 0001731  74.7965 285.3358 13.17648108129249
ONEWEB-0463             
1 51650U 22012AE  24256.41103189  .00000160  00000+0  37939-3 0  9990
2 51650  87.9148 133.9431 0001704  73.8378 286.2941 13.17650971129024
ONEWEB-0464             
1 51651U 22012AF  24256.48456304 -.00000072  00000+0 -24365-3 0  9991
2 51651  87.8997 164.1720 0001767  86.4415 273.6914 13.10376981125153
ONEWEB-0468             
1 51652U 22012AG  24256.49120947  .00000128  00000+0  32964-3 0  9998
2 51652  87.8996 164.1632 0001828  75.3838 284.7492 13.10375645125137
ONEWEB-0473             
1 51653U 22012AH  24256.78168141 -.00000504  00000+0 -14805-2 0  9992
2 51653  87.8994 164.1096 0001718  74.0385 286.0931 13.10373257126479
ONEWEB-0474             
1 51654U 22012AJ  24256.46795496 -.00000495  00000+0 -14544-2 0  9996
2 51654  87.8980 164.1601 0001634  77.5705 282.5605 13.10372320125128
ONEWEB-0475             
1 51655U 22012AK  24256.42235490  .00000036  00000+0  58878-4 0  9995
2 51655  87.9146 133.9204 0000883  80.1617 279.9614 13.17652980129049
ONEWEB-0490             
1 54113U 22138A   24256.51145604  .00000144  00000+0  32819-3 0  9999
2 54113  87.9092  72.7977 0001709  94.3301 265.8027 13.19724168 92066
